GLOBALSTAR M068         
1 32266U 07048D   25010.16300715 -.00000061  00000+0  23758-3 0  9994
2 32266  51.9894  63.9634 0001449 142.2909 252.3654 12.62813250797889
GLOBALSTAR M079         
1 37188U 10054A   25009.89712472 -.00000072  00000+0  17706-3 0  9996
2 37188  52.0032 261.6502 0000770  51.0378  50.3305 12.62269752656466
GLOBALSTAR M074         
1 37189U 10054B   25009.84127206 -.00000068  00000+0  20130-3 0  9997
2 37189  52.0007 261.1663 0001091  66.9343  20.8367 12.62261565657067
GLOBALSTAR M076         
1 37190U 10054C   25010.44033910 -.00000068  00000+0  20170-3 0  9999
2 37190  52.0017 259.4994 0001076  50.7095 120.7783 12.62276088657210
GLOBALSTAR M077         
1 37191U 10054D   25009.94730958 -.00000070  00000+0  18954-3 0  9999
2 37191  52.0043 217.8114 0001099  81.3702  67.5921 12.62269824657900
GLOBALSTAR M075         
1 37192U 10054E   25009.87637387 -.00000075  00000+0  16256-3 0  9992
2 37192  51.9963 303.5595 0000730  60.1932   8.0743 12.62271510655856
GLOBALSTAR M073         
1 37193U 10054F   25009.89030861 -.00000069  00000+0  19488-3 0  9992
2 37193  52.0031 217.2150 0001065  75.1707  55.9409 12.62262376657842
GLOBALSTAR M083         
1 37739U 11033A   25009.82827750 -.00000080  00000+0  13146-3 0  9998
2 37739  51.9835 166.3494 0000857 104.2621  45.3023 12.62270574626851
GLOBALSTAR M088         
1 37740U 11033B   25010.16883943 -.00000091  00000+0  70642-4 0  9992
2 37740  51.9746  70.9369 0000465 138.1152 240.1066 12.62267245622731
GLOBALSTAR M091         
1 37741U 11033C   25010.10727442 -.00000093  00000+0  59154-4 0  9995
2 37741  52.0015  34.3978 0000296 179.6384 217.9656 12.62272553623480
GLOBALSTAR M085         
1 37742U 11033D   25010.10306213 -.00000090  00000+0  76673-4 0  9997
2 37742  51.9894 345.5886 0000132  51.5266  27.3635 12.62263684624223
GLOBALSTAR M081         
1 37743U 11033E   25009.95748194 -.00000089  00000+0  81495-4 0  9993
2 37743  51.9981 348.7192 0000338   8.2662   9.9058 12.62275131623867
GLOBALSTAR M089         
1 37744U 11033F   25010.34273005 -.00000078  00000+0  14607-3 0  9991
2 37744  51.9943 301.8072 0000877  53.7591  94.8728 12.62264872625002
GLOBALSTAR M084         
1 38040U 11080A   25009.79969493 -.00000082  00000+0  11923-3 0  9996
2 38040  51.9985 170.6615 0001311  90.6326  49.3016 12.62273441602667
GLOBALSTAR M080         
1 38041U 11080B   25009.85588876 -.00000083  00000+0  11377-3 0  9990
2 38041  52.0037 172.0452 0001307  76.1161  77.1667 12.62260481602935
GLOBALSTAR M082         
1 38042U 11080C   25009.86799500 -.00000104  00000+0 -14461-6 0  9995
2 38042  52.0070 127.4350 0001006 142.3151   7.5440 12.62271972603502
GLOBALSTAR M092         
1 38043U 11080D   25010.07739307 -.00000072  00000+0  17723-3 0  9994
2 38043  52.0054 217.1672 0001150  85.7501  56.1179 12.62271867602194
GLOBALSTAR M090         
1 38044U 11080E   25010.51253618 -.00000113  00000+0 -53287-4 0  9993
2 38044  51.9882 119.4849 0000771 129.3688 310.5764 12.62265564603747
GLOBALSTAR M086         
1 38045U 11080F   25010.37222561 -.00000111  00000+0 -37596-4 0  9994
2 38045  51.9892 120.4502 0000518  39.5500   2.9444 12.62265582603737
GLOBALSTAR M097         
1 39072U 13005A   25010.38962753 -.00000081  00000+0  12513-3 0  9995
2 39072  52.0061  34.7859 0000117 129.5727 230.5150 12.62268809550960
GLOBALSTAR M093         
1 39073U 13005B   25009.33320638 -.00000091  00000+0  72855-4 0  9996
2 39073  51.9825  31.5544 0000078 138.0336 222.0537 12.62260832550828
GLOBALSTAR M094         
1 39074U 13005C   25009.88791385 -.00000091  00000+0  73872-4 0  9998
2 39074  51.9974 304.0932 0000451  28.8255 331.2636 12.62266829552382
GLOBALSTAR M096         
1 39075U 13005D   25010.37623786 -.00000092  00000+0  68395-4 0  9999
2 39075  52.0096 350.9964 0000085 340.5856  19.5007 12.62266523551714
GLOBALSTAR M078         
1 39076U 13005E   25010.42842487 -.00000079  00000+0  13808-3 0  9990
2 39076  51.9882  75.5578 0001231 167.7306 192.3590 12.62267054550200
GLOBALSTAR M095         
1 39077U 13005F   25010.45521941 -.00000095  00000+0  48639-4 0  9992
2 39077  51.9808  72.7541 0000728 178.3013 181.7856 12.62265195550213
GLOBALSTAR M087         
1 52888U 22064A   25009.86956014 -.00000080  00000+0  12446-3 0  9998
2 52888  51.9753 216.6437 0021637  31.7851 328.4329 12.88918997125030
